$$SOE
2461302.500000000, A.D. 2026-Sep-19 00:00:00.0000, 3.939693846720331E+08, 2.962460269160717E+08, -2.814934536455314E+07,
2461309.500000000, A.D. 2026-Sep-26 00:00:00.0000, 3.886877657001299E+08, 3.055881332531104E+08, -2.810641369400968E+07,
2461316.500000000, A.D. 2026-Oct-03 00:00:00.0000, 3.832507873760995E+08, 3.148080720123500E+08, -2.805224698494658E+07,
2461323.500000000, A.D. 2026-Oct-10 00:00:00.0000, 3.776620343236034E+08, 3.239033159657028E+08, -2.798697021365142E+07,
2461330.500000000, A.D. 2026-Oct-17 00:00:00.0000, 3.719251193261442E+08, 3.328714617765970E+08, -2.791071295645726E+07,
2461337.500000000, A.D. 2026-Oct-24 00:00:00.0000, 3.660436783675568E+08, 3.417102288365722E+08, -2.782360910616858E+07,
2461344.500000000, A.D. 2026-Oct-31 00:00:00.0000, 3.600213659244083E+08, 3.504174577443572E+08, -2.772579661426271E+07,
2461351.500000000, A.D. 2026-Nov-07 00:00:00.0000, 3.538618508548685E+08, 3.589911085146968E+08, -2.761741728433858E+07,
2461358.500000000, A.D. 2026-Nov-14 00:00:00.0000, 3.475688130889342E+08, 3.674292594173070E+08, -2.749861656304631E+07,
2461365.500000000, A.D. 2026-Nov-21 00:00:00.0000, 3.411459393099039E+08, 3.757301071407091E+08, -2.736954310669050E+07,
2461372.500000000, A.D. 2026-Nov-28 00:00:00.0000, 3.345969166299272E+08, 3.838919652883028E+08, -2.723034827776653E+07,
2461379.500000000, A.D. 2026-Dec-05 00:00:00.0000, 3.279254278827283E+08, 3.919132605669242E+08, -2.708118595744589E+07,
2461386.500000000, A.D. 2026-Dec-12 00:00:00.0000, 3.211351487014608E+08, 3.997925297925112E+08, -2.692221243531679E+07,
2461393.500000000, A.D. 2026-Dec-19 00:00:00.0000, 3.142297444952487E+08, 4.075284177317172E+08, -2.675358620291038E+07,
2461400.500000000, A.D. 2026-Dec-26 00:00:00.0000, 3.072128671819763E+08, 4.151196749236149E+08, -2.657546770898798E+07,
2461407.500000000, A.D. 2027-Jan-02 00:00:00.0000, 3.000881519521456E+08, 4.225651553020309E+08, -2.638801911758213E+07,
2461414.500000000, A.D. 2027-Jan-09 00:00:00.0000, 2.928592141784418E+08, 4.298638136494074E+08, -2.619140407792795E+07,
2461421.500000000, A.D. 2027-Jan-16 00:00:00.0000, 2.855296465027875E+08, 4.370147029011804E+08, -2.598578750884211E+07,
2461428.500000000, A.D. 2027-Jan-23 00:00:00.0000, 2.781030161423032E+08, 4.440169712707900E+08, -2.577133540504324E+07,
2461435.500000000, A.D. 2027-Jan-30 00:00:00.0000, 2.705828625966732E+08, 4.508698591569858E+08, -2.554821468660098E+07,
2461442.500000000, A.D. 2027-Feb-06 00:00:00.0000, 2.629726961762577E+08, 4.575726961826189E+08, -2.531659310282278E+07,
2461449.500000000, A.D. 2027-Feb-13 00:00:00.0000, 2.552759968852744E+08, 4.641248995927036E+08, -2.507663904887486E+07,
2461456.500000000, A.D. 2027-Feb-20 00:00:00.0000, 2.474962112896973E+08, 4.705259732272757E+08, -2.482852114298421E+07,
2461463.500000000, A.D. 2027-Feb-27 00:00:00.0000, 2.396367487588247E+08, 4.767755038631555E+08, -2.457240795482275E+07,
2461470.500000000, A.D. 2027-Mar-06 00:00:00.0000, 2.317009800937957E+08, 4.828731568556081E+08, -2.430846800504676E+07,
2461477.500000000, A.D. 2027-Mar-13 00:00:00.0000, 2.236922369380517E+08, 4.888186731353379E+08, -2.403686972192323E+07,
2461484.500000000, A.D. 2027-Mar-20 00:00:00.0000, 2.156138108345693E+08, 4.946118667314097E+08, -2.375778131964779E+07,
2461491.500000000, A.D. 2027-Mar-27 00:00:00.0000, 2.074689521261843E+08, 5.002526222764735E+08, -2.347137066169208E+07,
2461498.500000000, A.D. 2027-Apr-03 00:00:00.0000, 1.992608688964001E+08, 5.057408924515428E+08, -2.317780513163152E+07,
2461505.500000000, A.D. 2027-Apr-10 00:00:00.0000, 1.909927260064438E+08, 5.110766953978729E+08, -2.287725151508445E+07,
2461512.500000000, A.D. 2027-Apr-17 00:00:00.0000, 1.826676442451535E+08, 5.162601120856423E+08, -2.256987589581430E+07,
2461519.500000000, A.D. 2027-Apr-24 00:00:00.0000, 1.742886996653918E+08, 5.212912835808882E+08, -2.225584357816225E+07,
2461526.500000000, A.D. 2027-May-01 00:00:00.0000, 1.658589234011442E+08, 5.261704082418725E+08, -2.193531906082276E+07,
2461533.500000000, A.D. 2027-May-08 00:00:00.0000, 1.573813022675242E+08, 5.308977395965078E+08, -2.160846602883026E+07,
2461540.500000000, A.D. 2027-May-15 00:00:00.0000, 1.488587786420673E+08, 5.354735858565604E+08, -2.127544714838716E+07,
2461547.500000000, A.D. 2027-May-22 00:00:00.0000, 1.402942480579368E+08, 5.398983084779391E+08, -2.093642373251557E+07,
2461554.500000000, A.D. 2027-May-29 00:00:00.0000, 1.316905578589279E+08, 5.441723183010577E+08, -2.059155570492190E+07,
2461561.500000000, A.D. 2027-Jun-05 00:00:00.0000, 1.230505077967180E+08, 5.482960724058712E+08, -2.024100168714526E+07,
2461568.500000000, A.D. 2027-Jun-12 00:00:00.0000, 1.143768505586700E+08, 5.522700721144326E+08, -1.988491898932105E+07,
2461575.500000000, A.D. 2027-Jun-19 00:00:00.0000, 1.056722918905722E+08, 5.560948612064822E+08, -1.952346355021423E+07,
2461582.500000000, A.D. 2027-Jun-26 00:00:00.0000, 9.693949058931680E+07, 5.597710240872502E+08, -1.915678987309405E+07,
2461589.500000000, A.D. 2027-Jul-03 00:00:00.0000, 8.818105849348027E+07, 5.632991839159099E+08, -1.878505096844921E+07,
2461596.500000000, A.D. 2027-Jul-10 00:00:00.0000, 7.939956050451244E+07, 5.666800007030734E+08, -1.840839830573040E+07,
2461603.500000000, A.D. 2027-Jul-17 00:00:00.0000, 7.059751467061281E+07, 5.699141693378708E+08, -1.802698178010619E+07,
2461610.500000000, A.D. 2027-Jul-24 00:00:00.0000, 6.177739248528987E+07, 5.730024174813137E+08, -1.764094971319315E+07,
2461617.500000000, A.D. 2027-Jul-31 00:00:00.0000, 5.294161980766761E+07, 5.759455035614609E+08, -1.725044890578967E+07,
2461624.500000000, A.D. 2027-Aug-07 00:00:00.0000, 4.409257820004616E+07, 5.787442160226887E+08, -1.685562462976938E+07,
2461631.500000000, A.D. 2027-Aug-14 00:00:00.0000, 3.523260437873401E+07, 5.813993735757031E+08, -1.645662036857104E+07,
2461638.500000000, A.D. 2027-Aug-21 00:00:00.0000, 2.636398839314529E+07, 5.839118230828743E+08, -1.605357763761058E+07,
2461645.500000000, A.D. 2027-Aug-28 00:00:00.0000, 1.748897396069209E+07, 5.862824362820138E+08, -1.564663610080567E+07,
2461652.500000000, A.D. 2027-Sep-04 00:00:00.0000, 8.609759773962151E+06, 5.885121078509734E+08, -1.523593367047325E+07,
2461659.500000000, A.D. 2027-Sep-11 00:00:00.0000, -2.714996173715427E+05, 5.906017541504967E+08, -1.482160651672536E+07,
2461666.500000000, A.D. 2027-Sep-18 00:00:00.0000, -9.152693219348855E+06, 5.925523119937397E+08, -1.440378905174857E+07,
2461673.500000000, A.D. 2027-Sep-25 00:00:00.0000, -1.803175307497011E+07, 5.943647373637710E+08, -1.398261391637924E+07,
2461680.500000000, A.D. 2027-Oct-02 00:00:00.0000, -2.690665374127049E+07, 5.960400041057402E+08, -1.355821197370782E+07,
2461687.500000000, A.D. 2027-Oct-09 00:00:00.0000, -3.577541174199394E+07, 5.975791025883951E+08, -1.313071231223693E+07,
2461694.500000000, A.D. 2027-Oct-16 00:00:00.0000, -4.463608493475958E+07, 5.989830382792645E+08, -1.270024226895219E+07,
2461701.500000000, A.D. 2027-Oct-23 00:00:00.0000, -5.348677153479015E+07, 6.002528302269942E+08, -1.226692749664861E+07,
2461708.500000000, A.D. 2027-Oct-30 00:00:00.0000, -6.232560842235478E+07, 6.013895100604910E+08, -1.183089206002700E+07,
2461715.500000000, A.D. 2027-Nov-06 00:00:00.0000, -7.115076989889123E+07, 6.023941226325294E+08, -1.139225836169267E+07,
2461722.500000000, A.D. 2027-Nov-13 00:00:00.0000, -7.996046887826994E+07, 6.032677262303451E+08, -1.095114688559821E+07,
2461729.500000000, A.D. 2027-Nov-20 00:00:00.0000, -8.875295761300224E+07, 6.040113901653712E+08, -1.050767620250189E+07,
2461736.500000000, A.D. 2027-Nov-27 00:00:00.0000, -9.752652633981675E+07, 6.046261927059426E+08, -1.006196314340177E+07,
2461743.500000000, A.D. 2027-Dec-04 00:00:00.0000, -1.062795018692171E+08, 6.051132202664353E+08, -9.614122880614161E+06,
2461750.500000000, A.D. 2027-Dec-11 00:00:00.0000, -1.150102466704611E+08, 6.054735668875690E+08, -9.164268944633275E+06,
2461757.500000000, A.D. 2027-Dec-18 00:00:00.0000, -1.237171581780262E+08, 6.057083336673986E+08, -8.712513229510874E+06,
2461764.500000000, A.D. 2027-Dec-25 00:00:00.0000, -1.323986681685993E+08, 6.058186281395712E+08, -8.258966000684142E+06,
2461771.500000000, A.D. 2028-Jan-01 00:00:00.0000, -1.410532421681322E+08, 6.058055636122112E+08, -7.803735907662928E+06,
$$EOE